#aV2014  5 23  0  0  0.00000000     288 DD+AD WGS84 FIT  NGA
## 1793 432000.00000000   300.00000000 56800 0.0000000000000
+   31     1  2  3  4  5  7  8  9 10 11 12 13 14 15 16 17 18
+         19 20 21 22 23 24 25 26 27 28 29 30 31 32  0  0  0
+          0  0  0  0  0  0  0  0  0  0  0  0  0  0  0  0  0
+          0  0  0  0  0  0  0  0  0  0  0  0  0  0  0  0  0
+          0  0  0  0  0  0  0  0  0  0  0  0  0  0  0  0  0
++         2  2  2  2  2  2  2  2  2  2  2  2  2  2  2  2  2
++         2  2  2  2  2  2  2  2  2  2  2  2  2  2  0  0  0
++         0  0  0  0  0  0  0  0  0  0  0  0  0  0  0  0  0
++         0  0  0  0  0  0  0  0  0  0  0  0  0  0  0  0  0
++         0  0  0  0  0  0  0  0  0  0  0  0  0  0  0  0  0
%c cc cc ccc ccc cccc cccc cccc cccc ccccc ccccc ccccc ccccc
%c cc cc ccc ccc cccc cccc cccc cccc ccccc ccccc ccccc ccccc
%f  0.0000000  0.000000000  0.00000000000  0.000000000000000
%f  0.0000000  0.000000000  0.00000000000  0.000000000000000
%i    0    0    0    0      0      0      0      0         0
%i    0    0    0    0      0      0      0      0         0
/*      NGA, ST. LOUIS,MO.                                  
/*   EPHEMERIS COMPUTED FROM  1 DAYS OF DATA                
/*   EPOCHA SMOOTHER                                       
/* CCCCCCCCCCCCCCCCCCCCCCCCCCCCCCCCCCCCCCCCCCCCCCCCCCCCCCCCC
*  2014  5 23  8 20  0.00000000
P  1  -9631.951959  20637.845346 -13578.702981     13.113967                    
V  1 -14636.650098   9411.313618  24876.989396      0.011828                    
P  2  21819.096533 -12732.603738  -7038.294667    496.918663                    
V  2  -4510.300016   9148.253593 -29807.134534      0.021486                    
P  3  -9505.150850  15112.913743  19070.833785    368.555929                    
V  3 -10058.870984 -23517.138277  13396.859928      0.049671                    
P  4  20236.895076   -510.560465 -17621.258794      6.921685                    
V  4 -15189.474049  15681.162655 -17989.530984     -0.000372                    
P  5  20639.326782  -5016.378364  16010.305354   -370.964983                    
V  5  18557.016933   8652.155830 -21001.838276      0.025755                    
P  7   4147.685647  15330.424123  21300.202496    349.403670                    
V  7 -21308.684394  16453.730933  -8046.650576      0.042398                    
P  8  12319.453510   8913.795014  22006.176090     13.743982                    
V  8 -22804.163688  15175.471497   6075.567635      0.001617                    
P  9  15593.113983   4702.452205  20492.802646    329.668474                    
V  9 -20185.579271  18158.444548  10725.435208      0.028510                    
P 10  25346.542444   8595.532324    909.526086   -126.699560                    
V 10    399.934541   3393.624872 -31036.412454     -0.015705                    
P 11 -10785.519395  23915.252143  -3857.116319   -491.234768                    
V 11  -6609.766815   1171.580304  29708.761440     -0.031049                    
P 12   3828.993526 -14220.848977 -22180.544764    206.743071                    
V 12  25946.244766  10279.235263  -1901.127394      0.024429                    
P 13   4437.929263  25835.577864   3537.994794     -3.007526                    
V 13  -2025.930199   4845.926548 -31818.460657     -0.038420                    
P 14 -13573.386414 -14695.600731 -17327.624396    170.355495                    
V 14   -977.739540 -22382.086189  19354.135911     -0.034653                    
P 15   5957.792876 -21370.873917  14330.598451   -181.080404                    
V 15   6867.725057  17384.692338  23268.467615     -0.021652                    
P 16 -20704.416015   3118.637247  16506.564271   -217.030345                    
V 16 -18814.516866  -9060.874515 -21467.236667      0.019393                    
P 17  14175.549791  13814.291767 -17559.172675    -95.429813                    
V 17   1780.696774  22685.079915  18784.787733     -0.030966                    
P 18 -15815.592694 -16619.638932  14113.631310    320.976944                    
V 18  17049.790618   3086.862514  23167.977597      0.023544                    
P 19  -9045.860054  19171.076252  15573.012716   -458.478910                    
V 19  -4031.627742 -19916.141723  22420.487823     -0.022036                    
P 20  -1228.729969  16196.389351 -21207.863783    192.318855                    
V 20 -25736.121940  -6850.798419  -3708.116791      0.038798                    
P 21  -8761.843630 -13671.271997  21630.532625   -362.720347                    
V 21  20050.542520 -16770.843618  -3014.635507     -0.022263                    
P 22 -24277.323231 -10660.472758   2898.141953    236.323785                    
V 22   4476.140650  -2466.024539  30518.249300      0.030179                    
P 23  -1478.251080  24963.008171  -8187.683723    -22.764802                    
V 23  -5048.134273  -9942.371008 -29444.865304     -0.030931                    
P 24  13426.146165 -20764.902003  -9592.334305    -28.851213                    
V 24  10954.046597  -5987.926391  28453.741266     -0.006849                    
P 25  -9719.922855 -16597.394206 -18448.393388     24.193187                    
V 25  22281.041431   6522.559172 -17544.755776      0.004583                    
P 26  12675.262181 -10696.145326  20016.529893     70.072843                    
V 26   3508.925508  26740.228257  11970.394137     -0.118248                    
P 27 -13458.475597   8397.891100  21287.591774    -14.924361                    
V 27  -5670.311133 -26451.650604   6906.244010      0.020785                    
P 28  21768.225342  14073.280580   6698.408968    356.888800                    
V 28  -7711.230938  -1439.804142  30750.691019      0.028757                    
P 29  -5242.651107 -25946.163088   2531.811407    534.516207                    
V 29   2041.781666  -3462.901300 -31699.417482      0.026987                    
P 30  13162.658045   8886.379442  21283.945825    -14.903661                    
V 30 -21509.814564  16411.434206   6417.790096     -0.055048                    
P 31 -21415.902801   4113.158216 -15221.180884    334.204961                    
V 31  14197.446893 -13365.851196 -23053.806280     -0.000811                    
P 32 -14132.290666   9528.148556 -20176.937294   -422.922136                    
V 32 -23080.223927 -11917.271584  11043.937743      0.082263                    
EOF
